ONEWEB-0235             
1 48771U 21045E   25092.60425253  .00000092  00000+0  20927-3 0  9997
2 48771  87.9116 346.9764 0002096  63.5465 296.5880 13.15547975186455
ONEWEB-0242             
1 48772U 21045F   25092.59791104  .00000088  00000+0  19989-3 0  9998
2 48772  87.9116 346.9638 0001970  74.9439 285.1910 13.15548348186490
ONEWEB-0241             
1 48773U 21045G   25092.73733450 -.00000065  00000+0 -20553-3 0  9991
2 48773  87.9100 347.0078 0002077  68.6338 291.5014 13.15554555187552
ONEWEB-0243             
1 48774U 21045H   25092.61692825  .00000157  00000+0  38200-3 0  9997
2 48774  87.9130 346.9954 0002077  67.4810 292.6540 13.15548815186433
ONEWEB-0222             
1 48775U 21045J   25092.44817613  .00000149  00000+0  36095-3 0  9994
2 48775  87.9111 347.0010 0001697  72.7315 287.4001 13.15549142186454
ONEWEB-0244             
1 48776U 21045K   25092.39826804  .00000133  00000+0  31976-3 0  9997
2 48776  87.9117 346.9895 0001953  75.7222 284.4125 13.15549256187018
ONEWEB-0247             
1 48777U 21045L   25092.39509896  .00000152  00000+0  36881-3 0  9998
2 48777  87.9126 347.0535 0002454  57.6373 302.4995 13.15549501186451
ONEWEB-0245             
1 48778U 21045M   25092.61851129  .00000146  00000+0  35490-3 0  9991
2 48778  87.9119 346.9804 0001603  72.2431 287.8874 13.15548856186458
